ISS OBJECT XY           
1 66912U 98067XY  26071.20145759  .00102225  00000+0  10452-2 0  9998
2 66912  51.6274  54.4268 0003307 103.5482 256.5881 15.64208185 15546
KNACKSAT-2              
1 67683U 98067XZ  26071.17454979  .00042044  00000+0  68775-3 0  9991
2 67683  51.6313  59.5002 0009517 194.8002 165.2710 15.52044782  5171
GXIBA-1                 
1 67684U 98067YA  26071.14313468  .00082736  00000+0  12130-2 0  9991
2 67684  51.6306  59.2916 0011254 184.0724 176.0177 15.54753471  5179
CORAL                   
1 67685U 98067YB  26071.16951478  .00048620  00000+0  78176-3 0  9990
2 67685  51.6309  59.4674 0011426 191.2681 168.8055 15.52436815  5171
ISS OBJECT YC           
1 67686U 98067YC  26071.22744256  .00058683  00000+0  92197-3 0  9991
2 67686  51.6316  59.1062 0008147 159.4103 200.7217 15.53034287  5184
LEOPARD                 
1 67687U 98067YD  26071.17191916  .00044721  00000+0  72622-3 0  9994
2 67687  51.6324  59.4853 0008024 163.2893 196.8363 15.52235393  5095
ISS OBJECT YE           
1 67688U 98067YE  26071.16600906  .00053451  00000+0  84959-3 0  9994
2 67688  51.6315  59.4462 0007979 160.0005 200.1299 15.52753002  5099
CREW DRAGON 12          
1 67796U 26031A   26071.15917149  .00009166  00000+0  17667-3 0  9991
2 67796  51.6325  60.1463 0007984 183.4136 176.6799 15.48595269556615
