CCSDS_OMM_VERS = 2.0
CREATION_DATE  = 
ORIGINATOR     = 

OBJECT_NAME    = ISS OBJECT XY
OBJECT_ID      = 1998-067XY
CENTER_NAME    = EARTH
REF_FRAME      = TEME
TIME_SYSTEM    = UTC
MEAN_ELEMENT_THEORY = SGP/SGP4

EPOCH          = 2026-03-12T04:50:05.935776
MEAN_MOTION    = 15.64208185
ECCENTRICITY   = .0003307
INCLINATION    = 51.6274
RA_OF_ASC_NODE = 54.4268
ARG_OF_PERICENTER = 103.5482
MEAN_ANOMALY   = 256.5881

EPHEMERIS_TYPE = 0
CLASSIFICATION_TYPE = U
NORAD_CAT_ID   = 66912
ELEMENT_SET_NO = 999
REV_AT_EPOCH   = 1554
BSTAR          = .10452E-2
MEAN_MOTION_DOT = .102225E-2
MEAN_MOTION_DDOT = 0

CCSDS_OMM_VERS = 2.0
CREATION_DATE  = 
ORIGINATOR     = 

OBJECT_NAME    = KNACKSAT-2
OBJECT_ID      = 1998-067XZ
CENTER_NAME    = EARTH
REF_FRAME      = TEME
TIME_SYSTEM    = UTC
MEAN_ELEMENT_THEORY = SGP/SGP4

EPOCH          = 2026-03-12T04:11:21.101856
MEAN_MOTION    = 15.52044782
ECCENTRICITY   = .0009517
INCLINATION    = 51.6313
RA_OF_ASC_NODE = 59.5002
ARG_OF_PERICENTER = 194.8002
MEAN_ANOMALY   = 165.2710

EPHEMERIS_TYPE = 0
CLASSIFICATION_TYPE = U
NORAD_CAT_ID   = 67683
ELEMENT_SET_NO = 999
REV_AT_EPOCH   = 517
BSTAR          = .68775E-3
MEAN_MOTION_DOT = .42044E-3
MEAN_MOTION_DDOT = 0

CCSDS_OMM_VERS = 2.0
CREATION_DATE  = 
ORIGINATOR     = 

OBJECT_NAME    = GXIBA-1
OBJECT_ID      = 1998-067YA
CENTER_NAME    = EARTH
REF_FRAME      = TEME
TIME_SYSTEM    = UTC
MEAN_ELEMENT_THEORY = SGP/SGP4

EPOCH          = 2026-03-12T03:26:06.836352
MEAN_MOTION    = 15.54753471
ECCENTRICITY   = .0011254
INCLINATION    = 51.6306
RA_OF_ASC_NODE = 59.2916
ARG_OF_PERICENTER = 184.0724
MEAN_ANOMALY   = 176.0177

EPHEMERIS_TYPE = 0
CLASSIFICATION_TYPE = U
NORAD_CAT_ID   = 67684
ELEMENT_SET_NO = 999
REV_AT_EPOCH   = 517
BSTAR          = .1213E-2
MEAN_MOTION_DOT = .82736E-3
MEAN_MOTION_DDOT = 0

CCSDS_OMM_VERS = 2.0
CREATION_DATE  = 
ORIGINATOR     = 

OBJECT_NAME    = CORAL
OBJECT_ID      = 1998-067YB
CENTER_NAME    = EARTH
REF_FRAME      = TEME
TIME_SYSTEM    = UTC
MEAN_ELEMENT_THEORY = SGP/SGP4

EPOCH          = 2026-03-12T04:04:06.076992
MEAN_MOTION    = 15.52436815
ECCENTRICITY   = .0011426
INCLINATION    = 51.6309
RA_OF_ASC_NODE = 59.4674
ARG_OF_PERICENTER = 191.2681
MEAN_ANOMALY   = 168.8055

EPHEMERIS_TYPE = 0
CLASSIFICATION_TYPE = U
NORAD_CAT_ID   = 67685
ELEMENT_SET_NO = 999
REV_AT_EPOCH   = 517
BSTAR          = .78176E-3
MEAN_MOTION_DOT = .4862E-3
MEAN_MOTION_DDOT = 0

CCSDS_OMM_VERS = 2.0
CREATION_DATE  = 
ORIGINATOR     = 

OBJECT_NAME    = ISS OBJECT YC
OBJECT_ID      = 1998-067YC
CENTER_NAME    = EARTH
REF_FRAME      = TEME
TIME_SYSTEM    = UTC
MEAN_ELEMENT_THEORY = SGP/SGP4

EPOCH          = 2026-03-12T05:27:31.037184
MEAN_MOTION    = 15.53034287
ECCENTRICITY   = .0008147
INCLINATION    = 51.6316
RA_OF_ASC_NODE = 59.1062
ARG_OF_PERICENTER = 159.4103
MEAN_ANOMALY   = 200.7217

EPHEMERIS_TYPE = 0
CLASSIFICATION_TYPE = U
NORAD_CAT_ID   = 67686
ELEMENT_SET_NO = 999
REV_AT_EPOCH   = 518
BSTAR          = .92197E-3
MEAN_MOTION_DOT = .58683E-3
MEAN_MOTION_DDOT = 0

CCSDS_OMM_VERS = 2.0
CREATION_DATE  = 
ORIGINATOR     = 

OBJECT_NAME    = LEOPARD
OBJECT_ID      = 1998-067YD
CENTER_NAME    = EARTH
REF_FRAME      = TEME
TIME_SYSTEM    = UTC
MEAN_ELEMENT_THEORY = SGP/SGP4

EPOCH          = 2026-03-12T04:07:33.815424
MEAN_MOTION    = 15.52235393
ECCENTRICITY   = .0008024
INCLINATION    = 51.6324
RA_OF_ASC_NODE = 59.4853
ARG_OF_PERICENTER = 163.2893
MEAN_ANOMALY   = 196.8363

EPHEMERIS_TYPE = 0
CLASSIFICATION_TYPE = U
NORAD_CAT_ID   = 67687
ELEMENT_SET_NO = 999
REV_AT_EPOCH   = 509
BSTAR          = .72622E-3
MEAN_MOTION_DOT = .44721E-3
MEAN_MOTION_DDOT = 0

CCSDS_OMM_VERS = 2.0
CREATION_DATE  = 
ORIGINATOR     = 

OBJECT_NAME    = ISS OBJECT YE
OBJECT_ID      = 1998-067YE
CENTER_NAME    = EARTH
REF_FRAME      = TEME
TIME_SYSTEM    = UTC
MEAN_ELEMENT_THEORY = SGP/SGP4

EPOCH          = 2026-03-12T03:59:03.182784
MEAN_MOTION    = 15.52753002
ECCENTRICITY   = .0007979
INCLINATION    = 51.6315
RA_OF_ASC_NODE = 59.4462
ARG_OF_PERICENTER = 160.0005
MEAN_ANOMALY   = 200.1299

EPHEMERIS_TYPE = 0
CLASSIFICATION_TYPE = U
NORAD_CAT_ID   = 67688
ELEMENT_SET_NO = 999
REV_AT_EPOCH   = 509
BSTAR          = .84959E-3
MEAN_MOTION_DOT = .53451E-3
MEAN_MOTION_DDOT = 0

CCSDS_OMM_VERS = 2.0
CREATION_DATE  = 
ORIGINATOR     = 

OBJECT_NAME    = CREW DRAGON 12
OBJECT_ID      = 2026-031A
CENTER_NAME    = EARTH
REF_FRAME      = TEME
TIME_SYSTEM    = UTC
MEAN_ELEMENT_THEORY = SGP/SGP4

EPOCH          = 2026-03-12T03:49:12.416736
MEAN_MOTION    = 15.48595269
ECCENTRICITY   = .0007984
INCLINATION    = 51.6325
RA_OF_ASC_NODE = 60.1463
ARG_OF_PERICENTER = 183.4136
MEAN_ANOMALY   = 176.6799

EPHEMERIS_TYPE = 0
CLASSIFICATION_TYPE = U
NORAD_CAT_ID   = 67796
ELEMENT_SET_NO = 999
REV_AT_EPOCH   = 55661
BSTAR          = .17667E-3
MEAN_MOTION_DOT = .9166E-4
MEAN_MOTION_DDOT = 0

